COMMENT,ORIGINATOR,NORAD_CAT_ID,OBJECT_NAME,OBJECT_TYPE,CLASSIFICATION_TYPE,INTLDES,EPOCH,EPOCH_MICROSECONDS,MEAN_MOTION,ECCENTRICITY,INCLINATION,RA_OF_ASC_NODE,ARG_OF_PERICENTER,MEAN_ANOMALY,EPHEMERIS_TYPE,ELEMENT_SET_NO,REV_AT_EPOCH,BSTAR,MEAN_MOTION_DOT,MEAN_MOTION_DDOT,FILE,TLE_LINE0,TLE_LINE1,TLE_LINE2,OBJECT_ID,OBJECT_NUMBER,SEMIMAJOR_AXIS,PERIOD,APOGEE,PERIGEE,DECAYED
"GENERATED VIA SPACETRACK.ORG API","18 SPCS","55092","SPACEBEE-166","PAYLOAD","U","23001CM","2023-09-29 09:30:51","773184","15.25161008","0.0014216","97.4639","331.965","3.5075","356.626","0","999","4096","0.0011365","0.00028586","0","4020020","0 SPACEBEE-166","1 55092U 23001CM  23272.39643256  .00028586  00000-0  11365-2 0  9998","2 55092  97.4639 331.9650 0014216   3.5075 356.6260 15.25161008 40968","2023-001CM","55092","6868.439","94.416","500.068","480.540","0"
"GENERATED VIA SPACETRACK.ORG API","18 SPCS","55092","SPACEBEE-166","PAYLOAD","U","23001CM","2023-09-30 02:50:05","168832","15.25213391","0.0014187","97.4635","332.6847","0.8751","359.2509","0","999","4107","0.0012908","0.00032544","0","4020418","0 SPACEBEE-166","1 55092U 23001CM  23273.11811538  .00032544  00000-0  12908-2 0  9992","2 55092  97.4635 332.6847 0014187   0.8751 359.2509 15.25213391 41079","2023-001CM","55092","6868.282","94.413","499.891","480.403","0"
"GENERATED VIA SPACETRACK.ORG API","18 SPCS","55092","SPACEBEE-166","PAYLOAD","U","23001CM","2023-09-30 02:50:05","168832","15.25213391","0.0014187","97.4635","332.6847","0.8751","359.2509","0","999","4107","0.0012908","0.00032544","0","4020886","0 SPACEBEE-166","1 55092U 23001CM  23273.11811538  .00032544  00000-0  12908-2 0  9992","2 55092  97.4635 332.6847 0014187   0.8751 359.2509 15.25213391 41079","2023-001CM","55092","6868.282","94.413","499.891","480.403","0"
"GENERATED VIA SPACETRACK.ORG API","18 SPCS","55092","SPACEBEE-166","PAYLOAD","U","23001CM","2023-10-01 04:01:37","718688","15.25281953","0.0014076","97.4631","333.7313","357.564","2.5527","0","999","4123","0.0014082","0.00035597","0","4021718","0 SPACEBEE-166","1 55092U 23001CM  23274.16779767  .00035597  00000-0  14082-2 0  9991","2 55092  97.4631 333.7313 0014076 357.5640   2.5527 15.25281953 41236","2023-001CM","55092","6868.076","94.409","499.608","480.273","0"
"GENERATED VIA SPACETRACK.ORG API","18 SPCS","55092","SPACEBEE-166","PAYLOAD","U","23001CM","2023-10-01 04:01:37","718688","15.25281953","0.0014076","97.4631","333.7313","357.564","2.5527","0","999","4123","0.0014082","0.00035597","0","4021853","0 SPACEBEE-166","1 55092U 23001CM  23274.16779767  .00035597  00000-0  14082-2 0  9991","2 55092  97.4631 333.7313 0014076 357.5640   2.5527 15.25281953 41236","2023-001CM","55092","6868.076","94.409","499.608","480.273","0"
"GENERATED VIA SPACETRACK.ORG API","18 SPCS","55092","SPACEBEE-166","PAYLOAD","U","23001CM","2023-10-01 16:37:22","431936","15.25315003","0.0013987","97.4629","334.2548","355.8439","4.268","0","999","4131","0.0012479","0.00031549","0","4022139","0 SPACEBEE-166","1 55092U 23001CM  23274.69262074  .00031549  00000-0  12479-2 0  9998","2 55092  97.4629 334.2548 0013987 355.8439   4.2680 15.25315003 41318","2023-001CM","55092","6867.977","94.407","499.448","480.235","0"
"GENERATED VIA SPACETRACK.ORG API","18 SPCS","55092","SPACEBEE-166","PAYLOAD","U","23001CM","2023-10-02 09:56:29","567904","15.25367017","0.0013902","97.4624","334.9746","353.181","6.9236","0","999","4142","0.0013274","0.00033624","0","4022661","0 SPACEBEE-166","1 55092U 23001CM  23275.41423111  .00033624  00000-0  13274-2 0  9990","2 55092  97.4624 334.9746 0013902 353.1810   6.9236 15.25367017 41421","2023-001CM","55092","6867.821","94.404","499.233","480.138","0"
"GENERATED VIA SPACETRACK.ORG API","18 SPCS","55092","SPACEBEE-166","PAYLOAD","U","23001CM","2023-10-02 17:48:48","500064","15.25390449","0.001388","97.4621","335.3017","351.861","8.24","0","999","4147","0.0013207","0.00033477","0","4023120","0 SPACEBEE-166","1 55092U 23001CM  23275.74222801  .00033477  00000-0  13207-2 0  9991","2 55092  97.4621 335.3017 0013880 351.8610   8.2400 15.25390449 41470","2023-001CM","55092","6867.750","94.402","499.148","480.083","0"
"GENERATED VIA SPACETRACK.ORG API","18 SPCS","55092","SPACEBEE-166","PAYLOAD","U","23001CM","2023-10-03 03:15:34","658784","15.25419281","0.0013866","97.4619","335.694","350.1394","9.957","0","999","4153","0.0014166","0.00035956","0","4023690","0 SPACEBEE-166","1 55092U 23001CM  23276.13581781  .00035956  00000-0  14166-2 0  9999","2 55092  97.4619 335.6940 0013866 350.1394   9.9570 15.25419281 41539","2023-001CM","55092","6867.664","94.400","499.051","480.006","0"
"GENERATED VIA SPACETRACK.ORG API","18 SPCS","55092","SPACEBEE-166","PAYLOAD","U","23001CM","2023-10-03 17:25:42","762432","15.25459265","0.0013822","97.4618","336.2827","347.8669","12.2234","0","999","4162","0.0013543","0.00034405","0","4023892","0 SPACEBEE-166","1 55092U 23001CM  23276.72618938  .00034405  00000-0  13543-2 0  9995","2 55092  97.4618 336.2827 0013822 347.8669  12.2234 15.25459265 41629","2023-001CM","55092","6867.544","94.398","498.901","479.916","0"
"GENERATED VIA SPACETRACK.ORG API","18 SPCS","55092","SPACEBEE-166","PAYLOAD","U","23001CM","2023-10-03 17:25:42","762432","15.25459265","0.0013822","97.4618","336.2827","347.8669","12.2234","0","999","4162","0.0013543","0.00034405","0","4023936","0 SPACEBEE-166","1 55092U 23001CM  23276.72618938  .00034405  00000-0  13543-2 0  9995","2 55092  97.4618 336.2827 0013822 347.8669  12.2234 15.25459265 41629","2023-001CM","55092","6867.544","94.398","498.901","479.916","0"
"GENERATED VIA SPACETRACK.ORG API","18 SPCS","55092","SPACEBEE-166","PAYLOAD","U","23001CM","2023-10-04 10:44:43","932480","15.25517722","0.0013768","97.4619","337.0022","345.3201","14.7635","0","999","4173","0.0015417","0.00039269","0","4024487","0 SPACEBEE-166","1 55092U 23001CM  23277.44773070  .00039269  00000-0  15417-2 0  9999","2 55092  97.4619 337.0022 0013768 345.3201  14.7635 15.25517722 41737","2023-001CM","55092","6867.368","94.394","498.688","479.778","0"
"GENERATED VIA SPACETRACK.ORG API","18 SPCS","55092","SPACEBEE-166","PAYLOAD","U","23001CM","2023-10-04 17:02:32","899200","15.25537902","0.0013735","97.4619","337.2638","344.4103","15.671","0","999","4177","0.0015096","0.00038468","0","4024683","0 SPACEBEE-166","1 55092U 23001CM  23277.71010300  .00038468  00000-0  15096-2 0  9992","2 55092  97.4619 337.2638 0013735 344.4103  15.6710 15.25537902 41777","2023-001CM","55092","6867.308","94.393","498.605","479.740","0"
"GENERATED VIA SPACETRACK.ORG API","18 SPCS","55092","SPACEBEE-166","PAYLOAD","U","23001CM","2023-10-04 17:02:32","899200","15.25537902","0.0013735","97.4619","337.2638","344.4103","15.671","0","999","4177","0.0015096","0.00038468","0","4024820","0 SPACEBEE-166","1 55092U 23001CM  23277.71010300  .00038468  00000-0  15096-2 0  9992","2 55092  97.4619 337.2638 0013735 344.4103  15.6710 15.25537902 41777","2023-001CM","55092","6867.308","94.393","498.605","479.740","0"
"GENERATED VIA SPACETRACK.ORG API","18 SPCS","55092","SPACEBEE-166","PAYLOAD","U","23001CM","2023-10-05 10:21:31","154112","15.25590016","0.0013668","97.462","337.9832","342.034","18.0413","0","999","4188","0.0015547","0.00039687","0","4025515","0 SPACEBEE-166","1 55092U 23001CM  23278.43161058  .00039687  00000-0  15547-2 0  9994","2 55092  97.4620 337.9832 0013668 342.0340  18.0413 15.25590016 41888","2023-001CM","55092","6867.151","94.390","498.402","479.630","0"
"GENERATED VIA SPACETRACK.ORG API","18 SPCS","55092","SPACEBEE-166","PAYLOAD","U","23001CM","2023-10-05 16:39:19","52064","15.25610224","0.0013647","97.4621","338.2449","341.0222","19.0505","0","999","4192","0.0015432","0.00039415","0","4025843","0 SPACEBEE-166","1 55092U 23001CM  23278.69397051  .00039415  00000-0  15432-2 0  9998","2 55092  97.4621 338.2449 0013647 341.0222  19.0505 15.25610224 41924","2023-001CM","55092","6867.091","94.388","498.327","479.584","0"
"GENERATED VIA SPACETRACK.ORG API","18 SPCS","55092","SPACEBEE-166","PAYLOAD","U","23001CM","2023-10-06 02:06:00","235872","15.25642092","0.0013629","97.4619","338.6374","339.485","20.5839","0","999","4198","0.0015382","0.00039324","0","4026058","0 SPACEBEE-166","1 55092U 23001CM  23279.08750273  .00039324  00000-0  15382-2 0  9994","2 55092  97.4619 338.6374 0013629 339.4850  20.5839 15.25642092 41981","2023-001CM","55092","6866.995","94.386","498.219","479.501","0"
"GENERATED VIA SPACETRACK.ORG API","18 SPCS","55092","SPACEBEE-166","PAYLOAD","U","23001CM","2023-10-06 09:58:13","994400","15.25667805","0.001358","97.4618","338.9647","338.2405","21.8254","0","999","4203","0.0014392","0.00036804","0","4026447","0 SPACEBEE-166","1 55092U 23001CM  23279.41543975  .00036804  00000-0  14392-2 0  9990","2 55092  97.4618 338.9647 0013580 338.2405  21.8254 15.25667805 42036","2023-001CM","55092","6866.918","94.385","498.108","479.458","0"
"GENERATED VIA SPACETRACK.ORG API","18 SPCS","55092","SPACEBEE-166","PAYLOAD","U","23001CM","2023-10-06 17:50:27","329568","15.25692975","0.0013573","97.4619","339.2919","336.8321","23.2304","0","999","4208","0.0014074","0.00036012","0","4026736","0 SPACEBEE-166","1 55092U 23001CM  23279.74337187  .00036012  00000-0  14074-2 0  9990","2 55092  97.4619 339.2919 0013573 336.8321  23.2304 15.25692975 42089","2023-001CM","55092","6866.842","94.383","498.028","479.387","0"
"GENERATED VIA SPACETRACK.ORG API","18 SPCS","55092","SPACEBEE-166","PAYLOAD","U","23001CM","2023-10-06 22:33:47","108448","15.25708089","0.001359","97.4619","339.488","335.9457","24.1145","0","999","4211","0.0014829","0.00037976","0","4027321","0 SPACEBEE-166","1 55092U 23001CM  23279.94012857  .00037976  00000-0  14829-2 0  9994","2 55092  97.4619 339.4880 0013590 335.9457  24.1145 15.25708089 42118","2023-001CM","55092","6866.797","94.382","497.994","479.330","0"
